{"type": "FeatureCollection", "features": [ {"type": "Feature", "properties": {"norad_id": 66889, "name": "STARLINK-35852", "group": "last-30-days", "lat": 38.820611168249165, "lon": 42.95702998942824, "alt_km": 391.07424872893444, "timestamp": "2025-12-26T09:30:52.343084+00:00", "meta": {"OBJECT_NAME": "STARLINK-35852", "OBJECT_ID": "2025-283M", "EPOCH": "2025-12-26T04:00:01.998720", "MEAN_MOTION": 15.57840243, "ECCENTRICITY": 0.0001556, "INCLINATION": 53.1596, "RA_OF_ASC_NODE": 6.9664, "ARG_OF_PERICENTER": 89.3624, "MEAN_ANOMALY": 113.4919, "EPHEMERIS_TYPE": 0, "CLASSIFICATION_TYPE": "U", "NORAD_CAT_ID": 66889, "ELEMENT_SET_NO": 999, "REV_AT_EPOCH": 458, "BSTAR": -0.030147, "MEAN_MOTION_DOT": -0.02005435, "MEAN_MOTION_DDOT": 0}, "tle": {"line1": "1 66889U 25283M   25360.16668980 -.02005435  00000+0 -30147-1 0  9993", "line2": "2 66889  53.1596   6.9664 0001556  89.3624 113.4919 15.57840243  4582"}}, "geometry": {"type": "Point", "coordinates": [42.95702998942824, 38.820611168249165]}}, {"type": "Feature", "properties": {"norad_id": 66890, "name": "STARLINK-35885", "group": "last-30-days", "lat": 40.02972452965508, "lon": 44.88304358020366, "alt_km": 390.82701299649034, "timestamp": "2025-12-26T09:30:52.343093+00:00", "meta": {"OBJECT_NAME": "STARLINK-35885", "OBJECT_ID": "2025-283N", "EPOCH": "2025-12-26T04:00:01.998720", "MEAN_MOTION": 15.57841063, "ECCENTRICITY": 0.0001578, "INCLINATION": 53.1598, "RA_OF_ASC_NODE": 6.9627, "ARG_OF_PERICENTER": 87.4915, "MEAN_ANOMALY": 117.278, "EPHEMERIS_TYPE": 0, "CLASSIFICATION_TYPE": "U", "NORAD_CAT_ID": 66890, "ELEMENT_SET_NO": 999, "REV_AT_EPOCH": 458, "BSTAR": -0.030145, "MEAN_MOTION_DOT": -0.02005404, "MEAN_MOTION_DDOT": 0}, "tle": {"line1": "1 66890U 25283N   25360.16668980 -.02005404  00000+0 -30145-1 0  9999", "line2": "2 66890  53.1598   6.9627 0001578  87.4915 117.2780 15.57841063  4580"}}, "geometry": {"type": "Point", "coordinates": [44.88304358020366, 40.02972452965508]}}, {"type": "Feature", "properties": {"norad_id": 66891, "name": "STARLINK-35855", "group": "last-30-days", "lat": 41.20579453194379, "lon": 46.877808239348525, "alt_km": 390.6283460141076, "timestamp": "2025-12-26T09:30:52.343105+00:00", "meta": {"OBJECT_NAME": "STARLINK-35855", "OBJECT_ID": "2025-283P", "EPOCH": "2025-12-26T04:00:01.998720", "MEAN_MOTION": 15.57836705, "ECCENTRICITY": 0.0001573, "INCLINATION": 53.16, "RA_OF_ASC_NODE": 6.9589, "ARG_OF_PERICENTER": 87.5005, "MEAN_ANOMALY": 119.1874, "EPHEMERIS_TYPE": 0, "CLASSIFICATION_TYPE": "U", "NORAD_CAT_ID": 66891, "ELEMENT_SET_NO": 999, "REV_AT_EPOCH": 458, "BSTAR": -0.030046, "MEAN_MOTION_DOT": -0.01999317, "MEAN_MOTION_DDOT": 0}, "tle": {"line1": "1 66891U 25283P   25360.16668980 -.01999317  00000+0 -30046-1 0  9994", "line2": "2 66891  53.1600   6.9589 0001573  87.5005 119.1874 15.57836705  4580"}}, "geometry": {"type": "Point", "coordinates": [46.877808239348525, 41.20579453194379]}}, {"type": "Feature", "properties": {"norad_id": 66892, "name": "STARLINK-35883", "group": "last-30-days", "lat": 42.346049955895225, "lon": 48.94432152910103, "alt_km": 390.434199342184, "timestamp": "2025-12-26T09:30:52.343115+00:00", "meta": {"OBJECT_NAME": "STARLINK-35883", "OBJECT_ID": "2025-283Q", "EPOCH": "2025-12-26T04:00:01.998720", "MEAN_MOTION": 15.57836082, "ECCENTRICITY": 0.0001594, "INCLINATION": 53.1599, "RA_OF_ASC_NODE": 6.9543, "ARG_OF_PERICENTER": 88.8771, "MEAN_ANOMALY": 119.7281, "EPHEMERIS_TYPE": 0, "CLASSIFICATION_TYPE": "U", "NORAD_CAT_ID": 66892, "ELEMENT_SET_NO": 999, "REV_AT_EPOCH": 452, "BSTAR": -0.030033, "MEAN_MOTION_DOT": -0.01998561, "MEAN_MOTION_DDOT": 0}, "tle": {"line1": "1 66892U 25283Q   25360.16668980 -.01998561  00000+0 -30033-1 0  9991", "line2": "2 66892  53.1599   6.9543 0001594  88.8771 119.7281 15.57836082  4525"}}, "geometry": {"type": "Point", "coordinates": [48.94432152910103, 42.346049955895225]}}, {"type": "Feature", "properties": {"norad_id": 66893, "name": "STARLINK-36033", "group": "last-30-days", "lat": 43.4479668878442, "lon": 51.08743999513836, "alt_km": 390.2735735192482, "timestamp": "2025-12-26T09:30:52.343125+00:00", "meta": {"OBJECT_NAME": "STARLINK-36033", "OBJECT_ID": "2025-283R", "EPOCH": "2025-12-26T04:00:01.998720", "MEAN_MOTION": 15.5783405, "ECCENTRICITY": 0.0001529, "INCLINATION": 53.1597, "RA_OF_ASC_NODE": 6.9503, "ARG_OF_PERICENTER": 87.7153, "MEAN_ANOMALY": 122.8071, "EPHEMERIS_TYPE": 0, "CLASSIFICATION_TYPE": "U", "NORAD_CAT_ID": 66893, "ELEMENT_SET_NO": 999, "REV_AT_EPOCH": 458, "BSTAR": -0.029969, "MEAN_MOTION_DOT": -0.01994628, "MEAN_MOTION_DDOT": 0}, "tle": {"line1": "1 66893U 25283R   25360.16668980 -.01994628  00000+0 -29969-1 0  9998", "line2": "2 66893  53.1597   6.9503 0001529  87.7153 122.8071 15.57834050  4581"}}, "geometry": {"type": "Point", "coordinates": [51.08743999513836, 43.4479668878442]}}, {"type": "Feature", "properties": {"norad_id": 66894, "name": "STARLINK-35718", "group": "last-30-days", "lat": 44.50887819793497, "lon": 53.31010288021205, "alt_km": 390.0804278380074, "timestamp": "2025-12-26T09:30:52.343137+00:00", "meta": {"OBJECT_NAME": "STARLINK-35718", "OBJECT_ID": "2025-283S", "EPOCH": "2025-12-26T04:00:01.998720", "MEAN_MOTION": 15.57837253, "ECCENTRICITY": 0.0001554, "INCLINATION": 53.1599, "RA_OF_ASC_NODE": 6.9472, "ARG_OF_PERICENTER": 87.7623, "MEAN_ANOMALY": 124.6766, "EPHEMERIS_TYPE": 0, "CLASSIFICATION_TYPE": "U", "NORAD_CAT_ID": 66894, "ELEMENT_SET_NO": 999, "REV_AT_EPOCH": 458, "BSTAR": -0.030057, "MEAN_MOTION_DOT": -0.01999966, "MEAN_MOTION_DDOT": 0}, "tle": {"line1": "1 66894U 25283S   25360.16668980 -.01999966  00000+0 -30057-1 0  9999", "line2": "2 66894  53.1599   6.9472 0001554  87.7623 124.6766 15.57837253  4588"}}, "geometry": {"type": "Point", "coordinates": [53.31010288021205, 44.50887819793497]}}, {"type": "Feature", "properties": {"norad_id": 66895, "name": "STARLINK-35971", "group": "last-30-days", "lat": 46.49226278506615, "lon": 57.99456329293502, "alt_km": 389.72076986846787, "timestamp": "2025-12-26T09:30:52.343147+00:00", "meta": {"OBJECT_NAME": "STARLINK-35971", "OBJECT_ID": "2025-283T", "EPOCH": "2025-12-26T04:00:01.998720", "MEAN_MOTION": 15.57840418, "ECCENTRICITY": 0.0001588, "INCLINATION": 53.16, "RA_OF_ASC_NODE": 6.937, "ARG_OF_PERICENTER": 86.8731, "MEAN_ANOMALY": 129.3981, "EPHEMERIS_TYPE": 0, "CLASSIFICATION_TYPE": "U", "NORAD_CAT_ID": 66895, "ELEMENT_SET_NO": 999, "REV_AT_EPOCH": 458, "BSTAR": -0.030109, "MEAN_MOTION_DOT": -0.02003252, "MEAN_MOTION_DDOT": 0}, "tle": {"line1": "1 66895U 25283T   25360.16668980 -.02003252  00000+0 -30109-1 0  9993", "line2": "2 66895  53.1600   6.9370 0001588  86.8731 129.3981 15.57840418  4584"}}, "geometry": {"type": "Point", "coordinates": [57.99456329293502, 46.49226278506615]}}, {"type": "Feature", "properties": {"norad_id": 66896, "name": "STARLINK-35791", "group": "last-30-days", "lat": 45.525532538920466, "lon": 55.61266608109144, "alt_km": 389.96465581366556, "timestamp": "2025-12-26T09:30:52.343156+00:00", "meta": {"OBJECT_NAME": "STARLINK-35791", "OBJECT_ID": "2025-283U", "EPOCH": "2025-12-26T04:00:01.998720", "MEAN_MOTION": 15.57846152, "ECCENTRICITY": 0.0001453, "INCLINATION": 53.1599, "RA_OF_ASC_NODE": 6.9415, "ARG_OF_PERICENTER": 87.292, "MEAN_ANOMALY": 127.0607, "EPHEMERIS_TYPE": 0, "CLASSIFICATION_TYPE": "U", "NORAD_CAT_ID": 66896, "ELEMENT_SET_NO": 999, "REV_AT_EPOCH": 458, "BSTAR": -0.030245, "MEAN_MOTION_DOT": -0.02011432, "MEAN_MOTION_DDOT": 0}, "tle": {"line1": "1 66896U 25283U   25360.16668980 -.02011432  00000+0 -30245-1 0  9994", "line2": "2 66896  53.1599   6.9415 0001453  87.2920 127.0607 15.57846152  4589"}}, "geometry": {"type": "Point", "coordinates": [55.61266608109144, 45.525532538920466]}}, {"type": "Feature", "properties": {"norad_id": 66897, "name": "STARLINK-36079", "group": "last-30-days", "lat": 47.40902494628994, "lon": 60.46609597215286, "alt_km": 389.72450454170394, "timestamp": "2025-12-26T09:30:52.343168+00:00", "meta": {"OBJECT_NAME": "STARLINK-36079", "OBJECT_ID": "2025-283V", "EPOCH": "2025-12-26T04:00:01.998720", "MEAN_MOTION": 15.57842068, "ECCENTRICITY": 0.0001408, "INCLINATION": 53.1601, "RA_OF_ASC_NODE": 6.9341, "ARG_OF_PERICENTER": 91.6951, "MEAN_ANOMALY": 126.4946, "EPHEMERIS_TYPE": 0, "CLASSIFICATION_TYPE": "U", "NORAD_CAT_ID": 66897, "ELEMENT_SET_NO": 999, "REV_AT_EPOCH": 458, "BSTAR": -0.030189, "MEAN_MOTION_DOT": -0.02007905, "MEAN_MOTION_DDOT": 0}, "tle": {"line1": "1 66897U 25283V   25360.16668980 -.02007905  00000+0 -30189-1 0  9992", "line2": "2 66897  53.1601   6.9341 0001408  91.6951 126.4946 15.57842068  4586"}}, "geometry": {"type": "Point", "coordinates": [60.46609597215286, 47.40902494628994]}}, {"type": "Feature", "properties": {"norad_id": 66898, "name": "STARLINK-36065", "group": "last-30-days", "lat": 48.268733550831, "lon": 63.01616113263591, "alt_km": 389.50801837863764, "timestamp": "2025-12-26T09:30:52.343178+00:00", "meta": {"OBJECT_NAME": "STARLINK-36065", "OBJECT_ID": "2025-283W", "EPOCH": "2025-12-26T04:00:01.998720", "MEAN_MOTION": 15.57838478, "ECCENTRICITY": 0.0001505, "INCLINATION": 53.1597, "RA_OF_ASC_NODE": 6.9293, "ARG_OF_PERICENTER": 89.3712, "MEAN_ANOMALY": 130.7345, "EPHEMERIS_TYPE": 0, "CLASSIFICATION_TYPE": "U", "NORAD_CAT_ID": 66898, "ELEMENT_SET_NO": 999, "REV_AT_EPOCH": 458, "BSTAR": -0.030087, "MEAN_MOTION_DOT": -0.02001799, "MEAN_MOTION_DDOT": 0}, "tle": {"line1": "1 66898U 25283W   25360.16668980 -.02001799  00000+0 -30087-1 0  9995", "line2": "2 66898  53.1597   6.9293 0001505  89.3712 130.7345 15.57838478  4585"}}, "geometry": {"type": "Point", "coordinates": [63.01616113263591, 48.268733550831]}}]}